<?xml version='1.0' encoding='UTF-8' standalone='yes' ?>
<gpx xmlns="http://www.topografix.com/GPX/1/1" xmlns:geotracker="http://ilyabogdanovich.com/gpx/extensions/geotracker" xmlns:xsi="http://www.w3.org/2001/XMLSchema-instance" xsi:schemaLocation="http://www.topografix.com/GPX/1/1 http://www.topografix.com/GPX/1/1/gpx.xsd" version="1.1" creator="Gravado no Geo Tracker para iOS de Ilya Bogdanovich">
  <metadata>
    <name>26 de jun. de 2026, 16:38:24</name>
    <author>
      <name>Gravado no Geo Tracker para iOS de Ilya Bogdanovich</name>
      <link href="https://apps.apple.com/app/geo-tracker-gps-tracker/id1610586137" />
    </author>
    <link href="https://apps.apple.com/app/geo-tracker-gps-tracker/id1610586137" />
    <time>2026-06-26T19:38:24Z</time>
  </metadata>
  <trk>
    <name>26 de jun. de 2026, 16:38:24</name>
    <src>Gravado no Geo Tracker para iOS de Ilya Bogdanovich</src>
    <link href="https://apps.apple.com/app/geo-tracker-gps-tracker/id1610586137" />
    <extensions>
      <geotracker:meta>
        <geotracker:length>1218.39</geotracker:length>
        <geotracker:duration>172514</geotracker:duration>
        <geotracker:creationtime>2026-06-26T19:38:24Z</geotracker:creationtime>
        <geotracker:activity>0</geotracker:activity>
      </geotracker:meta>
    </extensions>
    <trkseg>
      <trkpt lat="-15.76409984" lon="-47.87313219">
        <ele>1042.76</ele>
        <time>2026-06-26T19:38:35Z</time>
        <extensions>
          <geotracker:meta s="0.15" />
        </extensions>
      </trkpt>
      <trkpt lat="-15.76396085" lon="-47.87318844">
        <ele>1043.16</ele>
        <time>2026-06-26T19:38:41Z</time>
        <extensions>
          <geotracker:meta s="5.1" />
        </extensions>
      </trkpt>
      <trkpt lat="-15.76386543" lon="-47.87322378">
        <ele>1043.18</ele>
        <time>2026-06-26T19:38:43Z</time>
        <extensions>
          <geotracker:meta s="5.42" />
        </extensions>
      </trkpt>
      <trkpt lat="-15.76375955" lon="-47.87326847">
        <ele>1043.1</ele>
        <time>2026-06-26T19:38:45Z</time>
        <extensions>
          <geotracker:meta c="5.96" s="5.81" />
        </extensions>
      </trkpt>
      <trkpt lat="-15.76365871" lon="-47.87331503">
        <ele>1043.04</ele>
        <time>2026-06-26T19:38:47Z</time>
        <extensions>
          <geotracker:meta c="5.8" s="5.8" />
        </extensions>
      </trkpt>
      <trkpt lat="-15.76355334" lon="-47.87338902">
        <ele>1042.63</ele>
        <time>2026-06-26T19:38:50Z</time>
        <extensions>
          <geotracker:meta s="3.73" />
        </extensions>
      </trkpt>
      <trkpt lat="-15.76361945" lon="-47.87348695">
        <ele>1043.13</ele>
        <time>2026-06-26T19:38:54Z</time>
        <extensions>
          <geotracker:meta s="3.34" />
        </extensions>
      </trkpt>
      <trkpt lat="-15.76366146" lon="-47.87358129">
        <ele>1043.28</ele>
        <time>2026-06-26T19:38:57Z</time>
        <extensions>
          <geotracker:meta s="3.73" />
        </extensions>
      </trkpt>
      <trkpt lat="-15.76353446" lon="-47.87363092">
        <ele>1043.34</ele>
        <time>2026-06-26T19:38:59Z</time>
        <extensions>
          <geotracker:meta s="4.88" />
        </extensions>
      </trkpt>
      <trkpt lat="-15.76343898" lon="-47.87366579">
        <ele>1043.51</ele>
        <time>2026-06-26T19:39:01Z</time>
        <extensions>
          <geotracker:meta c="5.98" s="6.38" />
        </extensions>
      </trkpt>
      <trkpt lat="-15.7633055" lon="-47.87370755">
        <ele>1043.62</ele>
        <time>2026-06-26T19:39:03Z</time>
        <extensions>
          <geotracker:meta c="5.99" s="7.58" />
        </extensions>
      </trkpt>
      <trkpt lat="-15.76316399" lon="-47.87374434">
        <ele>1043.5</ele>
        <time>2026-06-26T19:39:05Z</time>
        <extensions>
          <geotracker:meta c="5.97" s="7.81" />
        </extensions>
      </trkpt>
      <trkpt lat="-15.76302799" lon="-47.87379207">
        <ele>1043.85</ele>
        <time>2026-06-26T19:39:07Z</time>
        <extensions>
          <geotracker:meta c="5.99" s="7.48" />
        </extensions>
      </trkpt>
      <trkpt lat="-15.76289937" lon="-47.87384013">
        <ele>1044.01</ele>
        <time>2026-06-26T19:39:09Z</time>
        <extensions>
          <geotracker:meta c="5.98" s="7.02" />
        </extensions>
      </trkpt>
      <trkpt lat="-15.76279151" lon="-47.87387908">
        <ele>1043.57</ele>
        <time>2026-06-26T19:39:11Z</time>
        <extensions>
          <geotracker:meta c="5.99" s="5.31" />
        </extensions>
      </trkpt>
      <trkpt lat="-15.76274406" lon="-47.87404516">
        <ele>1043.16</ele>
        <time>2026-06-26T19:39:15Z</time>
        <extensions>
          <geotracker:meta c="4.37" s="3.79" />
        </extensions>
      </trkpt>
      <trkpt lat="-15.76269221" lon="-47.87414422">
        <ele>1041.83</ele>
        <time>2026-06-26T19:39:24Z</time>
        <extensions>
          <geotracker:meta c="6" s="3.24" />
        </extensions>
      </trkpt>
      <trkpt lat="-15.76255288" lon="-47.8741938">
        <ele>1041.79</ele>
        <time>2026-06-26T19:39:27Z</time>
        <extensions>
          <geotracker:meta c="6" s="6.86" />
        </extensions>
      </trkpt>
      <trkpt lat="-15.76240186" lon="-47.87425053">
        <ele>1041.72</ele>
        <time>2026-06-26T19:39:29Z</time>
        <extensions>
          <geotracker:meta c="6" s="9.02" />
        </extensions>
      </trkpt>
      <trkpt lat="-15.76231624" lon="-47.87428802">
        <ele>1041.75</ele>
        <time>2026-06-26T19:39:30Z</time>
        <extensions>
          <geotracker:meta c="5.99" s="10.03" />
        </extensions>
      </trkpt>
      <trkpt lat="-15.76222252" lon="-47.87432209">
        <ele>1041.72</ele>
        <time>2026-06-26T19:39:31Z</time>
        <extensions>
          <geotracker:meta c="5.99" s="10.98" />
        </extensions>
      </trkpt>
      <trkpt lat="-15.76212063" lon="-47.87435531">
        <ele>1041.44</ele>
        <time>2026-06-26T19:39:32Z</time>
        <extensions>
          <geotracker:meta c="5.99" s="11.78" />
        </extensions>
      </trkpt>
      <trkpt lat="-15.76201273" lon="-47.87439165">
        <ele>1041.42</ele>
        <time>2026-06-26T19:39:33Z</time>
        <extensions>
          <geotracker:meta c="5.99" s="12.46" />
        </extensions>
      </trkpt>
      <trkpt lat="-15.76189843" lon="-47.87442882">
        <ele>1041.15</ele>
        <time>2026-06-26T19:39:34Z</time>
        <extensions>
          <geotracker:meta c="5.99" s="13.09" />
        </extensions>
      </trkpt>
      <trkpt lat="-15.76178445" lon="-47.87446693">
        <ele>1041.12</ele>
        <time>2026-06-26T19:39:35Z</time>
        <extensions>
          <geotracker:meta c="5.99" s="13.28" />
        </extensions>
      </trkpt>
      <trkpt lat="-15.76167237" lon="-47.87450361">
        <ele>1040.87</ele>
        <time>2026-06-26T19:39:36Z</time>
        <extensions>
          <geotracker:meta c="5.99" s="13.21" />
        </extensions>
      </trkpt>
      <trkpt lat="-15.76156097" lon="-47.87454055">
        <ele>1040.82</ele>
        <time>2026-06-26T19:39:37Z</time>
        <extensions>
          <geotracker:meta c="5.99" s="13.03" />
        </extensions>
      </trkpt>
      <trkpt lat="-15.76145111" lon="-47.87457533">
        <ele>1040.87</ele>
        <time>2026-06-26T19:39:38Z</time>
        <extensions>
          <geotracker:meta c="6" s="12.59" />
        </extensions>
      </trkpt>
      <trkpt lat="-15.76135262" lon="-47.87460632">
        <ele>1041.06</ele>
        <time>2026-06-26T19:39:39Z</time>
        <extensions>
          <geotracker:meta c="5.99" s="11.4" />
        </extensions>
      </trkpt>
      <trkpt lat="-15.76120672" lon="-47.87462972">
        <ele>1041.03</ele>
        <time>2026-06-26T19:39:41Z</time>
        <extensions>
          <geotracker:meta c="5.99" s="7.33" />
        </extensions>
      </trkpt>
      <trkpt lat="-15.76111931" lon="-47.87454795">
        <ele>1041.18</ele>
        <time>2026-06-26T19:39:43Z</time>
        <extensions>
          <geotracker:meta c="0.93" s="6.4" />
        </extensions>
      </trkpt>
      <trkpt lat="-15.76109409" lon="-47.87439788">
        <ele>1041.12</ele>
        <time>2026-06-26T19:39:45Z</time>
        <extensions>
          <geotracker:meta c="1.33" s="8.38" />
        </extensions>
      </trkpt>
      <trkpt lat="-15.76104972" lon="-47.87421431">
        <ele>1041.2</ele>
        <time>2026-06-26T19:39:47Z</time>
        <extensions>
          <geotracker:meta c="1.33" s="10.27" />
        </extensions>
      </trkpt>
      <trkpt lat="-15.76102525" lon="-47.8741129">
        <ele>1041.46</ele>
        <time>2026-06-26T19:39:48Z</time>
        <extensions>
          <geotracker:meta c="1.33" s="11.07" />
        </extensions>
      </trkpt>
      <trkpt lat="-15.7609976" lon="-47.87400349">
        <ele>1041.43</ele>
        <time>2026-06-26T19:39:49Z</time>
        <extensions>
          <geotracker:meta c="1.3" s="11.76" />
        </extensions>
      </trkpt>
      <trkpt lat="-15.76096701" lon="-47.87389088">
        <ele>1041.32</ele>
        <time>2026-06-26T19:39:50Z</time>
        <extensions>
          <geotracker:meta c="1.3" s="12.27" />
        </extensions>
      </trkpt>
      <trkpt lat="-15.7609358" lon="-47.87377514">
        <ele>1041.27</ele>
        <time>2026-06-26T19:39:51Z</time>
        <extensions>
          <geotracker:meta c="1.3" s="12.67" />
        </extensions>
      </trkpt>
      <trkpt lat="-15.76088948" lon="-47.87366435">
        <ele>1041.02</ele>
        <time>2026-06-26T19:39:52Z</time>
        <extensions>
          <geotracker:meta c="1.3" s="12.75" />
        </extensions>
      </trkpt>
      <trkpt lat="-15.76086703" lon="-47.87354593">
        <ele>1040.8</ele>
        <time>2026-06-26T19:39:53Z</time>
        <extensions>
          <geotracker:meta c="1.3" s="12.81" />
        </extensions>
      </trkpt>
      <trkpt lat="-15.76083815" lon="-47.87342987">
        <ele>1040.45</ele>
        <time>2026-06-26T19:39:54Z</time>
        <extensions>
          <geotracker:meta c="1.24" s="12.81" />
        </extensions>
      </trkpt>
      <trkpt lat="-15.76080839" lon="-47.87331786">
        <ele>1040.02</ele>
        <time>2026-06-26T19:39:55Z</time>
        <extensions>
          <geotracker:meta c="1.25" s="12.4" />
        </extensions>
      </trkpt>
      <trkpt lat="-15.76078177" lon="-47.87322181">
        <ele>1039.87</ele>
        <time>2026-06-26T19:39:56Z</time>
        <extensions>
          <geotracker:meta c="1.26" s="10.69" />
        </extensions>
      </trkpt>
      <trkpt lat="-15.76075015" lon="-47.87308996">
        <ele>1039.65</ele>
        <time>2026-06-26T19:39:58Z</time>
        <extensions>
          <geotracker:meta c="1.42" s="6.21" />
        </extensions>
      </trkpt>
      <trkpt lat="-15.7607524" lon="-47.87298186">
        <ele>1039.31</ele>
        <time>2026-06-26T19:40:00Z</time>
        <extensions>
          <geotracker:meta c="1.73" s="6.14" />
        </extensions>
      </trkpt>
      <trkpt lat="-15.76081972" lon="-47.87288986">
        <ele>1038.18</ele>
        <time>2026-06-26T19:40:02Z</time>
        <extensions>
          <geotracker:meta c="2.05" s="6.52" />
        </extensions>
      </trkpt>
      <trkpt lat="-15.76098803" lon="-47.87286482">
        <ele>1037.65</ele>
        <time>2026-06-26T19:40:04Z</time>
        <extensions>
          <geotracker:meta c="2.86" s="8.36" />
        </extensions>
      </trkpt>
      <trkpt lat="-15.76116525" lon="-47.87282174">
        <ele>1037.54</ele>
        <time>2026-06-26T19:40:06Z</time>
        <extensions>
          <geotracker:meta c="2.86" s="10.1" />
        </extensions>
      </trkpt>
      <trkpt lat="-15.76126675" lon="-47.87280309">
        <ele>1037.4</ele>
        <time>2026-06-26T19:40:07Z</time>
        <extensions>
          <geotracker:meta c="2.87" s="10.79" />
        </extensions>
      </trkpt>
      <trkpt lat="-15.7613707" lon="-47.87277721">
        <ele>1037.35</ele>
        <time>2026-06-26T19:40:08Z</time>
        <extensions>
          <geotracker:meta c="2.87" s="11.48" />
        </extensions>
      </trkpt>
      <trkpt lat="-15.7614706" lon="-47.87274175">
        <ele>1037.32</ele>
        <time>2026-06-26T19:40:09Z</time>
        <extensions>
          <geotracker:meta c="2.86" s="11.61" />
        </extensions>
      </trkpt>
      <trkpt lat="-15.76156603" lon="-47.87270372">
        <ele>1037.2</ele>
        <time>2026-06-26T19:40:10Z</time>
        <extensions>
          <geotracker:meta c="2.86" s="11.04" />
        </extensions>
      </trkpt>
      <trkpt lat="-15.76171835" lon="-47.87266933">
        <ele>1037.03</ele>
        <time>2026-06-26T19:40:12Z</time>
        <extensions>
          <geotracker:meta c="3.16" s="8.47" />
        </extensions>
      </trkpt>
      <trkpt lat="-15.76184853" lon="-47.87268182">
        <ele>1036.99</ele>
        <time>2026-06-26T19:40:14Z</time>
        <extensions>
          <geotracker:meta c="3.05" s="7.08" />
        </extensions>
      </trkpt>
      <trkpt lat="-15.76193814" lon="-47.87261815">
        <ele>1037.18</ele>
        <time>2026-06-26T19:40:16Z</time>
        <extensions>
          <geotracker:meta c="2.52" s="6.04" />
        </extensions>
      </trkpt>
      <trkpt lat="-15.76206151" lon="-47.87254197">
        <ele>1037.01</ele>
        <time>2026-06-26T19:40:18Z</time>
        <extensions>
          <geotracker:meta c="2.71" s="7.78" />
        </extensions>
      </trkpt>
      <trkpt lat="-15.76222213" lon="-47.8724709">
        <ele>1037.16</ele>
        <time>2026-06-26T19:40:20Z</time>
        <extensions>
          <geotracker:meta c="2.69" s="9.69" />
        </extensions>
      </trkpt>
      <trkpt lat="-15.7623097" lon="-47.87243071">
        <ele>1037.24</ele>
        <time>2026-06-26T19:40:21Z</time>
        <extensions>
          <geotracker:meta c="2.69" s="10.45" />
        </extensions>
      </trkpt>
      <trkpt lat="-15.76239998" lon="-47.87238221">
        <ele>1037.37</ele>
        <time>2026-06-26T19:40:22Z</time>
        <extensions>
          <geotracker:meta c="2.69" s="10.97" />
        </extensions>
      </trkpt>
      <trkpt lat="-15.7624942" lon="-47.87233277">
        <ele>1037.48</ele>
        <time>2026-06-26T19:40:23Z</time>
        <extensions>
          <geotracker:meta c="2.69" s="11.42" />
        </extensions>
      </trkpt>
      <trkpt lat="-15.76258954" lon="-47.87228669">
        <ele>1037.34</ele>
        <time>2026-06-26T19:40:24Z</time>
        <extensions>
          <geotracker:meta c="2.69" s="11.47" />
        </extensions>
      </trkpt>
      <trkpt lat="-15.7626806" lon="-47.87224156">
        <ele>1037.18</ele>
        <time>2026-06-26T19:40:25Z</time>
        <extensions>
          <geotracker:meta c="2.69" s="11.45" />
        </extensions>
      </trkpt>
      <trkpt lat="-15.7627708" lon="-47.87218729">
        <ele>1036.93</ele>
        <time>2026-06-26T19:40:26Z</time>
        <extensions>
          <geotracker:meta c="2.69" s="11.58" />
        </extensions>
      </trkpt>
      <trkpt lat="-15.76286327" lon="-47.87213278">
        <ele>1036.89</ele>
        <time>2026-06-26T19:40:27Z</time>
        <extensions>
          <geotracker:meta c="2.69" s="11.8" />
        </extensions>
      </trkpt>
      <trkpt lat="-15.76295502" lon="-47.87206319">
        <ele>1036.78</ele>
        <time>2026-06-26T19:40:28Z</time>
        <extensions>
          <geotracker:meta c="2.66" s="12.13" />
        </extensions>
      </trkpt>
      <trkpt lat="-15.76304526" lon="-47.87200734">
        <ele>1036.72</ele>
        <time>2026-06-26T19:40:29Z</time>
        <extensions>
          <geotracker:meta c="2.56" s="12.26" />
        </extensions>
      </trkpt>
      <trkpt lat="-15.76314788" lon="-47.87194591">
        <ele>1036.74</ele>
        <time>2026-06-26T19:40:30Z</time>
        <extensions>
          <geotracker:meta c="2.55" s="12.58" />
        </extensions>
      </trkpt>
      <trkpt lat="-15.7632407" lon="-47.87188161">
        <ele>1036.81</ele>
        <time>2026-06-26T19:40:31Z</time>
        <extensions>
          <geotracker:meta c="2.55" s="12.78" />
        </extensions>
      </trkpt>
      <trkpt lat="-15.76333637" lon="-47.87181533">
        <ele>1036.79</ele>
        <time>2026-06-26T19:40:32Z</time>
        <extensions>
          <geotracker:meta c="2.55" s="13.01" />
        </extensions>
      </trkpt>
      <trkpt lat="-15.76343536" lon="-47.87174608">
        <ele>1036.74</ele>
        <time>2026-06-26T19:40:33Z</time>
        <extensions>
          <geotracker:meta c="2.51" s="13.2" />
        </extensions>
      </trkpt>
      <trkpt lat="-15.76352928" lon="-47.87167709">
        <ele>1037.02</ele>
        <time>2026-06-26T19:40:34Z</time>
        <extensions>
          <geotracker:meta c="2.53" s="13.38" />
        </extensions>
      </trkpt>
      <trkpt lat="-15.76362581" lon="-47.87160671">
        <ele>1037.2</ele>
        <time>2026-06-26T19:40:35Z</time>
        <extensions>
          <geotracker:meta c="2.53" s="13.13" />
        </extensions>
      </trkpt>
      <trkpt lat="-15.76370477" lon="-47.87154942">
        <ele>1037.73</ele>
        <time>2026-06-26T19:40:36Z</time>
        <extensions>
          <geotracker:meta c="2.52" s="10.81" />
        </extensions>
      </trkpt>
      <trkpt lat="-15.76380613" lon="-47.87149227">
        <ele>1038.2</ele>
        <time>2026-06-26T19:40:38Z</time>
        <extensions>
          <geotracker:meta c="2.52" s="6.15" />
        </extensions>
      </trkpt>
      <trkpt lat="-15.76391867" lon="-47.8716125">
        <ele>1039.57</ele>
        <time>2026-06-26T19:40:41Z</time>
        <extensions>
          <geotracker:meta c="4.06" s="6.23" />
        </extensions>
      </trkpt>
      <trkpt lat="-15.76399199" lon="-47.87173013">
        <ele>1040.56</ele>
        <time>2026-06-26T19:40:43Z</time>
        <extensions>
          <geotracker:meta c="4.07" s="7.59" />
        </extensions>
      </trkpt>
      <trkpt lat="-15.76409068" lon="-47.871878">
        <ele>1041.63</ele>
        <time>2026-06-26T19:40:45Z</time>
        <extensions>
          <geotracker:meta c="4.09" s="9.37" />
        </extensions>
      </trkpt>
      <trkpt lat="-15.76414402" lon="-47.87196204">
        <ele>1042.26</ele>
        <time>2026-06-26T19:40:46Z</time>
        <extensions>
          <geotracker:meta c="4.09" s="10.12" />
        </extensions>
      </trkpt>
      <trkpt lat="-15.76420551" lon="-47.87204706">
        <ele>1042.89</ele>
        <time>2026-06-26T19:40:47Z</time>
        <extensions>
          <geotracker:meta c="4.1" s="10.76" />
        </extensions>
      </trkpt>
      <trkpt lat="-15.76427392" lon="-47.87213479">
        <ele>1043.38</ele>
        <time>2026-06-26T19:40:48Z</time>
        <extensions>
          <geotracker:meta c="4.1" s="11.34" />
        </extensions>
      </trkpt>
      <trkpt lat="-15.76433379" lon="-47.87222329">
        <ele>1043.56</ele>
        <time>2026-06-26T19:40:49Z</time>
        <extensions>
          <geotracker:meta c="4.1" s="11.72" />
        </extensions>
      </trkpt>
      <trkpt lat="-15.76439831" lon="-47.87231567">
        <ele>1043.75</ele>
        <time>2026-06-26T19:40:50Z</time>
        <extensions>
          <geotracker:meta c="4.09" s="12.17" />
        </extensions>
      </trkpt>
      <trkpt lat="-15.76445974" lon="-47.87241116">
        <ele>1043.85</ele>
        <time>2026-06-26T19:40:51Z</time>
        <extensions>
          <geotracker:meta c="4.09" s="12.42" />
        </extensions>
      </trkpt>
      <trkpt lat="-15.76452485" lon="-47.8725022">
        <ele>1043.85</ele>
        <time>2026-06-26T19:40:52Z</time>
        <extensions>
          <geotracker:meta c="4.09" s="12.29" />
        </extensions>
      </trkpt>
      <trkpt lat="-15.76458162" lon="-47.87259032">
        <ele>1043.9</ele>
        <time>2026-06-26T19:40:53Z</time>
        <extensions>
          <geotracker:meta c="4.1" s="11.74" />
        </extensions>
      </trkpt>
      <trkpt lat="-15.76463416" lon="-47.87267537">
        <ele>1043.92</ele>
        <time>2026-06-26T19:40:54Z</time>
        <extensions>
          <geotracker:meta c="4.12" s="11.16" />
        </extensions>
      </trkpt>
      <trkpt lat="-15.7646883" lon="-47.87275803">
        <ele>1044.03</ele>
        <time>2026-06-26T19:40:55Z</time>
        <extensions>
          <geotracker:meta c="4.12" s="10.4" />
        </extensions>
      </trkpt>
      <trkpt lat="-15.76476942" lon="-47.87288239">
        <ele>1044.45</ele>
        <time>2026-06-26T19:40:56Z</time>
        <extensions>
          <geotracker:meta c="4.1" s="7.97" />
        </extensions>
      </trkpt>
      <trkpt lat="-15.76479286" lon="-47.8729748">
        <ele>1044.56</ele>
        <time>2026-06-26T19:40:58Z</time>
        <extensions>
          <geotracker:meta s="4.81" />
        </extensions>
      </trkpt>
      <trkpt lat="-15.7646841" lon="-47.87301954">
        <ele>1044.88</ele>
        <time>2026-06-26T19:41:01Z</time>
        <extensions>
          <geotracker:meta s="4.37" />
        </extensions>
      </trkpt>
      <trkpt lat="-15.76459148" lon="-47.87306534">
        <ele>1045.22</ele>
        <time>2026-06-26T19:41:03Z</time>
        <extensions>
          <geotracker:meta s="5.53" />
        </extensions>
      </trkpt>
      <trkpt lat="-15.7644759" lon="-47.87305176">
        <ele>1045.29</ele>
        <time>2026-06-26T19:41:05Z</time>
        <extensions>
          <geotracker:meta c="0.09" s="6.11" />
        </extensions>
      </trkpt>
      <trkpt lat="-15.76436347" lon="-47.87305328">
        <ele>1045.56</ele>
        <time>2026-06-26T19:41:07Z</time>
        <extensions>
          <geotracker:meta c="6.24" s="6.21" />
        </extensions>
      </trkpt>
      <trkpt lat="-15.76423613" lon="-47.87307035">
        <ele>1045.34</ele>
        <time>2026-06-26T19:41:09Z</time>
        <extensions>
          <geotracker:meta c="5.88" s="6.78" />
        </extensions>
      </trkpt>
      <trkpt lat="-15.76411342" lon="-47.87311214">
        <ele>1044.56</ele>
        <time>2026-06-26T19:41:11Z</time>
        <extensions>
          <geotracker:meta c="5.87" s="6.29" />
        </extensions>
      </trkpt>
    </trkseg>
  </trk>
</gpx>